[{"OBJECT_NAME":"PATHFINDER 1","OBJECT_ID":"2016-059E","EPOCH":"2026-03-09T22:26:32.347968","MEAN_MOTION":14.67518797,"ECCENTRICITY":0.00289613,"INCLINATION":97.8179,"RA_OF_ASC_NODE":72.6978,"ARG_OF_PERICENTER":160.0111,"MEAN_ANOMALY":200.2236,"EPHEMERIS_TYPE":0,"CLASSIFICATION_TYPE":"U","NORAD_CAT_ID":41787,"ELEMENT_SET_NO":999,"REV_AT_EPOCH":50515,"BSTAR":0.00018125608,"MEAN_MOTION_DOT":9.87e-6,"MEAN_MOTION_DDOT":0},{"OBJECT_NAME":"CZ-6A DEB","OBJECT_ID":"2024-140GP","EPOCH":"2026-03-09T20:10:47.945280","MEAN_MOTION":14.46111658,"ECCENTRICITY":0.00857461,"INCLINATION":88.9751,"RA_OF_ASC_NODE":281.6901,"ARG_OF_PERICENTER":281.1498,"MEAN_ANOMALY":78.0076,"EPHEMERIS_TYPE":0,"CLASSIFICATION_TYPE":"U","NORAD_CAT_ID":60812,"ELEMENT_SET_NO":999,"REV_AT_EPOCH":8307,"BSTAR":0.0002467554,"MEAN_MOTION_DOT":9.37e-6,"MEAN_MOTION_DDOT":0}]
